STARLINK-1800
1 26700C 20073AG  21325.14600369  .00001208  00000-0  80958-4 0  3259
2 26700  53.0514 102.5747 0001473  78.5991 209.9108 15.06384246    16
